ENVISAT                 
1 27386U 02009A   23273.54203727  .00000245  00000+0  94110-4 0  9993
2 27386  98.2441 239.2816 0001207  87.8270  23.6427 14.38414509131108
IDEFIX & ARIANE 42P R/B 
1 27422U 02021B   23273.08495631  .00000550  00000+0  23068-3 0  9996
2 27422  98.4970 211.4486 0011115 296.7398  63.2646 14.29793147116557
AQUA                    
1 27424U 02022A   23273.48242145  .00001677  00000+0  37215-3 0  9993
2 27424  98.2952 217.5859 0001118 107.5047  29.0512 14.58367908138707
CZ-4B R/B               
1 27432U 02024C   23273.10603351  .00000101  00000+0  75609-4 0  9994
2 27432  99.0144 308.6780 0050809  30.8631  28.1013 14.14240543103201
MIDORI II (ADEOS-II)    
1 27597U 02056A   23272.86011492  .00000584  00000+0  25306-3 0  9995
2 27597  98.6562 216.1628 0002102  81.1346 279.0073 14.28014872 82951
H-2A R/B                
1 27601U 02056E   23272.94801375  .00000600  00000+0  23053-3 0  9993
2 27601  98.2022 258.4866 0070573 301.3626 112.3616 14.32476241 86382
CZ-4B R/B               
1 28059U 03049C   23272.81161629  .00000843  00000+0  21117-3 0  9999
2 28059  98.5707 223.4977 0050725  74.2329 286.4452 14.53310634 56970
CZ-2C R/B               
1 28222U 04012C   23273.25446194  .00009926  00000+0  46357-3 0  9998
2 28222  97.8076 271.1092 0037186 235.1126 124.6610 15.19410980 67395
SL-16 R/B               
1 28353U 04021B   23273.26576071  .00000418  00000+0  24339-3 0  9995
2 28353  71.0001 302.8488 0006793 300.6143  59.4309 14.14349194996775
CZ-4B R/B               
1 28415U 04035C   23273.10006938  .00006414  00000+0  36807-3 0  9997
2 28415  97.4599 307.7771 0045391 204.7281 155.1774 15.12004410 44469
CZ-2C R/B               
1 28480U 04046B   23272.83246255  .00000392  00000+0  16351-3 0  9999
2 28480  98.1241 230.1369 0139898 272.5354  85.9820 14.26117942981332
ARIANE 5 R/B            
1 28499U 04049H   23273.26533484  .00001358  00000+0  16872-3 0  9994
2 28499  98.1499  40.9847 0089611 357.3742  65.6610 14.81574030 13621
CZ-2D R/B               
1 28738U 05024B   23273.00051744  .00010489  00000+0  49135-3 0  9993
2 28738  97.3586 271.7678 0009653 356.7765   3.3406 15.19852045  2916
SUZAKU (ASTRO-EII)      
1 28773U 05025A   23272.74917162  .00021054  00000+0  66338-3 0  9992
2 28773  31.3896  93.5680 0003293  93.9423 266.1605 15.31716129  6702
ALOS (DAICHI)           
1 28931U 06002A   23273.47741898  .00002070  00000+0  39909-3 0  9997
2 28931  97.9995 227.9320 0000647  88.8527 271.2750 14.64518144943179
H-2A R/B                
1 28932U 06002B   23273.47941592  .00005466  00000+0  44673-3 0  9997
2 28932  98.2321 345.9837 0079758 345.9466  13.9534 14.97352039960376
RESURS-DK 1             
1 29228U 06021A   23273.44804319  .00003302  00000+0  23655-3 0  9993
2 29228  69.9384   9.4954 0002788  15.4768 344.6479 15.05411844953086
GENESIS 1               
1 29252U 06029A   23273.25673293  .00013175  00000+0  47045-3 0  9990
2 29252  64.5195 320.0443 0011132 212.4773 147.5672 15.29079343950573
CZ-4B R/B               
1 29507U 06046C   23273.07021185  .00004117  00000+0  28942-3 0  9990
2 29507  97.6786 305.7021 0044476  85.7570 274.8737 15.04853553925411
CZ-2C R/B               
1 31114U 07010B   23272.99717104  .00000199  00000+0  11125-3 0  9993
2 31114  98.2959  59.9208 0059711  10.2352 350.0026 14.19625404853179
COSMO-SKYMED 1          
1 31598U 07023A   23273.47784154  .00001404  00000+0  18293-3 0  9999
2 31598  97.8885  95.4355 0001180  96.3166 263.8181 14.82143439882584
GENESIS 2               
1 31789U 07028A   23272.98352224  .00016214  00000+0  57971-3 0  9991
2 31789  64.4957   5.5057 0051824 247.7870 111.7755 15.27696028897403
COSMOS 2428             
1 31792U 07029A   23273.40984891  .00000259  00000+0  16564-3 0  9990
2 31792  70.9289 273.9200 0006700  49.2223 310.9478 14.12567506838296
SL-16 R/B               
1 31793U 07029B   23273.23681972 -.00000206  00000+0 -82182-4 0  9990
2 31793  70.9743 245.8857 0003061 271.1133 181.1180 14.14556204839295
KORONAS-FOTON           
1 33504U 09003A   23273.51890625  .00005749  00000+0  25155-3 0  9995
2 33504  82.4355 105.6228 0018292  76.5446 283.7827 15.21701025809459
CZ-2C R/B               
1 37731U 11030B   23273.17966949  .00002639  00000+0  37653-3 0  9990
2 37731  97.7268 242.4008 0057882   8.3170 112.9248 14.76409016658320
H-2A R/B                
1 38341U 12025E   23273.42730346  .00003458  00000+0  38731-3 0  9999
2 38341  98.4386 163.7533 0052202 333.7163  26.1404 14.86628641615504
CUSAT 2 & FALCON 9 R/B  
1 39271U 13055G   23273.27119013  .00045411 -60174-6  72792-3 0  9997
2 39271  80.9494  27.1022 0407968  83.3128 281.4333 14.94114527526084
SHIJIAN-16 (SJ-16)      
1 39358U 13057A   23273.53859741  .00001778  00000+0  19858-3 0  9999
2 39358  74.9724  66.1319 0017943 108.0483 252.2659 14.87499120538841
CZ-2C R/B               
1 39364U 13059B   23273.09579840  .00039210  00000+0  71915-3 0  9992
2 39364  97.0917 317.8725 0030434  74.7628 285.6984 15.48657531552392
SL-4 R/B                
1 39679U 14021B   23273.29725641  .00007731  00000+0  32750-3 0  9992
2 39679  51.6107 279.5093 0149247 158.1658 202.5766 15.14585416520489
ALOS-2                  
1 39766U 14029A   23273.45318115  .00002975  00000+0  40500-3 0  9996
2 39766  97.9232   8.8379 0001518  99.1879 260.9504 14.79476383505129
SL-27 R/B               
1 40354U 14084B   23273.18659712  .00023077  00000+0  32271-3 0  9995
2 40354  74.7333  50.3325 0025664 352.5637   7.5199 15.56327408493320
YAOGAN-29               
1 41038U 15069A   23273.40725719  .00000875  00000+0  11886-3 0  9995
2 41038  98.0649 281.2589 0002133  44.3686 315.7697 14.81357009423857
ASTRO-H (HITOMI)        
1 41337U 16012A   23273.21824787  .00003673  00000+0  26931-3 0  9996
2 41337  31.0041 313.3107 0011200  61.5657 298.6106 15.01694652417734
HXMT (HUIYAN)           
1 42758U 17034A   23273.49230270  .00008372  00000+0  47433-3 0  9998
2 42758  43.0147 277.9928 0005047 309.7180  50.3221 15.13265274347312
CZ-2C R/B               
1 43521U 18054D   23273.46958239  .00014009  00000+0  58568-3 0  9994
2 43521  35.1518 316.3159 0067334 302.2847  57.1359 15.20697150291061
SAOCOM 1A               
1 43641U 18076A   23273.48626208  .00000875  00000+0  11652-3 0  9990
2 43641  97.8899  98.4633 0001410  88.3736 271.7638 14.82155739269358
H-2A R/B                
1 43682U 18084L   23273.11844187  .00008268  00000+0  50088-3 0  9992
2 43682  98.8864 313.8305 0050016 155.8473 204.5113 15.09859072270041
SAOCOM 1B               
1 46265U 20059A   23273.51747962  .00000841  00000+0  11225-3 0  9993
2 46265  97.8893  97.5774 0001311  86.6140 273.5223 14.82147609166750
CSS (TIANHE)            
1 48274U 21035A   23273.35691401  .00021677  00000+0  23261-3 0  9991
2 48274  41.4732 235.8692 0008776 153.3992 206.7300 15.63232037138274
COSMOS 2550             
1 48865U 21056A   23273.06463479  .00002746  00000+0  89236-4 0  9991
2 48865  67.1419 218.2576 0008309 269.4347  90.5855 15.33834194126728
2022-019U               
1 51842U 22019U   23273.45871426  .00031115  00000+0  76088-3 0  9990
2 51842  97.5255   2.7060 0047924 326.4926  33.3290 15.39533651 88634
CZ-2C R/B               
1 52794U 22058K   23272.73215976  .00014500  00000+0  66838-3 0  9993
2 52794  50.1695  78.0161 0092107 161.2909 199.1467 15.16716523 73357
CZ-2C R/B               
1 53131U 22082D   23273.15468307  .00046857  00000+0  65637-3 0  9997
2 53131  97.3424 290.6347 0029234 206.7662 153.2085 15.56136842 68069
XRISM                   
1 57800U 23137A   23272.56455802  .00005213  00000+0  42412-3 0  9993
2 57800  31.0031 233.7111 0010018 141.7912 218.3434 14.98020695  3308
